NORAD_CAT_ID,OBJECT_NAME,OBJECT_TYPE,EPOCH,MEAN_MOTION,ECCENTRICITY,INCLINATION,RA_OF_ASC_NODE,ARG_OF_PERICENTER,MEAN_ANOMALY,BSTAR,MEAN_MOTION_DOT,MEAN_MOTION_DDOT,TLE_LINE0,TLE_LINE1,TLE_LINE2,SEMIMAJOR_AXIS,PERIOD,APOGEE,PERIGEE,DECAYED
56457.0,STARLINK-5994,PAYLOAD,2024-07-18 10:26:45,14.98330874,0.0003415,69.9989,215.3818,268.5659,91.5109,2.8686e-05,2.49e-06,0.0,0 STARLINK-5994,1 56457U 23064K   24200.43525418  .00000249  00000-0  28686-4 0  9991,2 56457  69.9989 215.3818 0003415 268.5659  91.5109 14.98330874 65486,6950.19,96.107,574.429,569.682,0.0
56457.0,STARLINK-5994,PAYLOAD,2024-07-18 18:27:26,14.98331378,0.0003489,69.9988,214.5403,270.3391,89.7368,4.7242e-05,4.71e-06,0.0,0 STARLINK-5994,1 56457U 23064K   24200.76905331  .00000471  00000-0  47242-4 0  9999,2 56457  69.9988 214.5403 0003489 270.3391  89.7368 14.98331378 65533,6950.189,96.107,574.479,569.629,0.0
56457.0,STARLINK-5994,PAYLOAD,2024-07-19 05:40:22,14.98329164,0.0003536,69.9986,213.3617,269.6652,90.4101,5.1527e-05,5.22e-06,0.0,0 STARLINK-5994,1 56457U 23064K   24201.23637469  .00000522  00000-0  51527-4 0  9994,2 56457  69.9986 213.3617 0003536 269.6652  90.4101 14.98329164 65960,6950.195,96.107,574.518,569.603,0.0
56457.0,STARLINK-5994,PAYLOAD,2024-07-19 10:28:46,14.98331398,0.0003528,69.9986,212.8566,269.432,90.6435,7.2831e-05,7.76e-06,0.0,0 STARLINK-5994,1 56457U 23064K   24201.43665265  .00000776  00000-0  72831-4 0  9993,2 56457  69.9986 212.8566 0003528 269.4320  90.6435 14.98331398 65636,6950.189,96.107,574.506,569.602,0.0
56457.0,STARLINK-5994,PAYLOAD,2024-07-19 18:29:27,14.98331358,0.0003518,69.9986,212.0147,269.389,90.6866,5.6031e-05,5.76e-06,0.0,0 STARLINK-5994,1 56457U 23064K   24201.77045237  .00000576  00000-0  56031-4 0  9993,2 56457  69.9986 212.0147 0003518 269.3890  90.6866 14.98331358 65682,6950.189,96.107,574.499,569.609,0.0
56457.0,STARLINK-5994,PAYLOAD,2024-07-20 05:42:22,14.98338834,0.0003551,69.9986,210.836,269.1467,90.9285,9.1002e-05,9.93e-06,0.0,0 STARLINK-5994,1 56457U 23064K   24202.23776500  .00000993  00000-0  91002-4 0  9999,2 56457  69.9986 210.8360 0003551 269.1467  90.9285 14.98338834 66113,6950.166,96.106,574.499,569.563,0.0
56457.0,STARLINK-5994,PAYLOAD,2024-07-20 10:30:46,14.98342412,0.000353,69.9986,210.331,269.0064,91.0691,0.0001266,1.418e-05,0.0,0 STARLINK-5994,1 56457U 23064K   24202.43804052  .00001418  00000-0  12660-3 0  9990,2 56457  69.9986 210.3310 0003530 269.0064  91.0691 14.98342412 65784,6950.155,96.106,574.473,569.566,0.0
56457.0,STARLINK-5994,PAYLOAD,2024-07-20 18:31:27,14.98333611,0.0003481,69.9988,209.4889,269.1042,90.9718,2.6129e-05,2.19e-06,0.0,0 STARLINK-5994,1 56457U 23064K   24202.77184717  .00000219  00000-0  26129-4 0  9990,2 56457  69.9988 209.4889 0003481 269.1042  90.9718 14.98333611 66193,6950.182,96.107,574.466,569.627,0.0
56457.0,STARLINK-5994,PAYLOAD,2024-07-21 05:44:24,14.98325704,0.000345,69.999,208.3111,268.7132,91.3632,-5.8765e-05,-7.94e-06,0.0,0 STARLINK-5994,1 56457U 23064K   24203.23917448 -.00000794  00000-0 -58765-4 0  9998,2 56457  69.9990 208.3111 0003450 268.7132  91.3632 14.98325704 66265,6950.206,96.107,574.469,569.673,0.0
56457.0,STARLINK-5994,PAYLOAD,2024-07-21 10:32:48,14.98324984,0.0003514,69.999,207.8066,269.3643,90.7114,-7.6248e-05,-1.003e-05,0.0,0 STARLINK-5994,1 56457U 23064K   24203.43945579 -.00001003  00000-0 -76248-4 0  9996,2 56457  69.9990 207.8066 0003514 269.3643  90.7114 14.98324984 65933,6950.208,96.107,574.516,569.631,0.0
56457.0,STARLINK-5994,PAYLOAD,2024-07-22 10:34:49,14.98333413,0.00035,69.9993,205.2821,269.2705,90.8054,-8.0847e-05,-1.058e-05,0.0,0 STARLINK-5994,1 56457U 23064K   24204.44085111 -.00001058  00000-0 -80847-4 0  9995,2 56457  69.9993 205.2821 0003500 269.2705  90.8054 14.98333413 66448,6950.182,96.107,574.48,569.615,0.0
56457.0,STARLINK-5994,PAYLOAD,2024-07-22 23:23:53,14.98325609,0.0003579,69.9993,203.9354,270.8384,89.2365,0.00011997,1.339e-05,0.0,0 STARLINK-5994,1 56457U 23064K   24204.97493034  .00001339  00000-0  11997-3 0  9999,2 56457  69.9993 203.9354 0003579 270.8384  89.2365 14.98325609 66165,6950.206,96.107,574.559,569.584,0.0
56457.0,STARLINK-5994,PAYLOAD,2024-07-23 09:00:42,14.98330281,0.0003563,69.9993,202.9256,270.165,89.9101,0.00014384,1.624e-05,0.0,0 STARLINK-5994,1 56457U 23064K   24205.37548774  .00001624  00000-0  14384-3 0  9996,2 56457  69.9993 202.9256 0003563 270.1650  89.9101 14.98330281 66221,6950.192,96.107,574.533,569.581,0.0
56457.0,STARLINK-5994,PAYLOAD,2024-07-24 04:14:19,14.9832729,0.0003495,69.9994,200.9056,268.8682,91.2077,2.7368e-05,2.33e-06,0.0,0 STARLINK-5994,1 56457U 23064K   24206.17661336  .00000233  00000-0  27368-4 0  9997,2 56457  69.9994 200.9056 0003495 268.8682  91.2077 14.98327290 66708,6950.201,96.107,574.495,569.637,0.0
56457.0,STARLINK-5994,PAYLOAD,2024-07-24 09:02:43,14.98328448,0.0003483,69.9993,200.4005,268.2606,91.8154,3.8624e-05,3.68e-06,0.0,0 STARLINK-5994,1 56457U 23064K   24206.37689251  .00000368  00000-0  38624-4 0  9991,2 56457  69.9993 200.4005 0003483 268.2606  91.8154 14.98328448 66374,6950.198,96.107,574.483,569.642,0.0
56457.0,STARLINK-5994,PAYLOAD,2024-07-25 04:16:20,14.98332858,0.0003469,69.9993,198.3805,267.6779,92.3982,4.7031e-06,-3.7e-07,0.0,0 STARLINK-5994,1 56457U 23064K   24207.17801012 -.00000037  00000-0  47031-5 0  9998,2 56457  69.9993 198.3805 0003469 267.6779  92.3982 14.98332858 66853,6950.184,96.107,574.46,569.638,0.0
56457.0,STARLINK-5994,PAYLOAD,2024-07-25 05:52:28,14.98332329,0.0003482,69.9993,198.2123,267.9178,92.1582,-1.5012e-06,-1.11e-06,0.0,0 STARLINK-5994,1 56457U 23064K   24207.24477056 -.00000111  00000-0 -15012-5 0  9991,2 56457  69.9993 198.2123 0003482 267.9178  92.1582 14.98332329 66505,6950.186,96.107,574.471,569.631,0.0
56457.0,STARLINK-5994,PAYLOAD,2024-07-25 09:04:44,14.98333888,0.0003467,69.9994,197.8758,268.1982,91.878,1.691e-05,1.09e-06,0.0,0 STARLINK-5994,1 56457U 23064K   24207.37828884  .00000109  00000-0  16910-4 0  9996,2 56457  69.9994 197.8758 0003467 268.1982  91.8780 14.98333888 66523,6950.181,96.107,574.455,569.636,0.0
56457.0,STARLINK-5994,PAYLOAD,2024-07-26 04:18:21,14.98329399,0.0003483,69.9994,195.8565,266.5979,93.4782,3.6223e-05,3.39e-06,0.0,0 STARLINK-5994,1 56457U 23064K   24208.17940988  .00000339  00000-0  36223-4 0  9999,2 56457  69.9994 195.8565 0003483 266.5979  93.4782 14.98329399 67009,6950.195,96.107,574.481,569.639,0.0
56457.0,STARLINK-5994,PAYLOAD,2024-07-26 09:06:44,14.98332324,0.0003486,69.9994,195.3512,267.3501,92.7259,6.4634e-05,6.78e-06,0.0,0 STARLINK-5994,1 56457U 23064K   24208.37968719  .00000678  00000-0  64634-4 0  9996,2 56457  69.9994 195.3512 0003486 267.3501  92.7259 14.98332324 66674,6950.186,96.107,574.474,569.628,0.0
56457.0,STARLINK-5994,PAYLOAD,2024-07-26 17:07:25,14.98331917,0.000341,69.9996,194.5097,268.3918,91.685,2.9916e-05,2.64e-06,0.0,0 STARLINK-5994,1 56457U 23064K   24208.71348814  .00000264  00000-0  29916-4 0  9997,2 56457  69.9996 194.5097 0003410 268.3918  91.6850 14.98331917 66723,6950.187,96.107,574.422,569.682,0.0
56457.0,STARLINK-5994,PAYLOAD,2024-07-27 04:20:21,14.98332752,0.0003418,69.9997,193.3316,268.2536,91.8231,2.3941e-05,1.93e-06,0.0,0 STARLINK-5994,1 56457U 23064K   24209.18080708  .00000193  00000-0  23941-4 0  9997,2 56457  69.9997 193.3316 0003418 268.2536  91.8231 14.98332752 67159,6950.184,96.107,574.425,569.674,0.0
56457.0,STARLINK-5994,PAYLOAD,2024-07-27 05:56:29,14.98333316,0.0003422,69.9997,193.1633,268.318,91.7587,2.9661e-05,2.61e-06,0.0,0 STARLINK-5994,1 56457U 23064K   24209.24756640  .00000261  00000-0  29661-4 0  9990,2 56457  69.9997 193.1633 0003422 268.3180  91.7587 14.98333316 66801,6950.183,96.107,574.426,569.669,0.0
56457.0,STARLINK-5994,PAYLOAD,2024-07-27 09:08:45,14.98334227,0.0003412,69.9997,192.8267,268.3675,91.7093,3.9185e-05,3.75e-06,0.0,0 STARLINK-5994,1 56457U 23064K   24209.38108532  .00000375  00000-0  39185-4 0  9994,2 56457  69.9997 192.8267 0003412 268.3675  91.7093 14.98334227 66824,6950.18,96.107,574.416,569.673,0.0
56457.0,STARLINK-5994,PAYLOAD,2024-07-28 04:22:22,14.98328353,0.0003373,69.9998,190.8069,268.2313,91.846,-2.0811e-05,-3.41e-06,0.0,0 STARLINK-5994,1 56457U 23064K   24210.18221045 -.00000341  00000-0 -20811-4 0  9990,2 56457  69.9998 190.8069 0003373 268.2313  91.8460 14.98328353 67303,6950.198,96.107,574.407,569.719,0.0
56457.0,STARLINK-5994,PAYLOAD,2024-07-28 09:10:46,14.98330406,0.0003339,69.9998,190.302,268.2171,91.8605,1.399e-05,7.4e-07,0.0,0 STARLINK-5994,1 56457U 23064K   24210.38248824  .00000074  00000-0  13990-4 0  9997,2 56457  69.9998 190.3020 0003339 268.2171  91.8605 14.98330406 66974,6950.192,96.107,574.377,569.736,0.0
56457.0,STARLINK-5994,PAYLOAD,2024-07-29 04:24:23,14.98330896,0.000325,70.0001,188.2825,268.4236,91.655,-1.0806e-05,-2.22e-06,0.0,0 STARLINK-5994,1 56457U 23064K   24211.18360910 -.00000222  00000-0 -10806-4 0  9997,2 56457  70.0001 188.2825 0003250 268.4236  91.6550 14.98330896 67451,6950.19,96.107,574.314,569.796,0.0
56457.0,STARLINK-5994,PAYLOAD,2024-07-29 07:36:39,14.9832988,0.0003189,70.0003,187.9461,267.9301,92.1493,1.4889e-05,8.5e-07,0.0,0 STARLINK-5994,1 56457U 23064K   24211.31712902  .00000085  00000-0  14889-4 0  9994,2 56457  70.0003 187.9461 0003189 267.9301  92.1493 14.98329880 67119,6950.193,96.107,574.275,569.842,0.0
56457.0,STARLINK-5994,PAYLOAD,2024-07-29 22:01:52,14.9832716,0.0003163,70.0003,186.4313,267.871,92.2087,2.746e-05,2.35e-06,0.0,0 STARLINK-5994,1 56457U 23064K   24211.91797087  .00000235  00000-0  27460-4 0  9993,2 56457  70.0003 186.4313 0003163 267.8710  92.2087 14.98327160 67203,6950.202,96.107,574.265,569.868,0.0
56457.0,STARLINK-5994,PAYLOAD,2024-07-30 04:26:24,14.98327474,0.0003218,70.0002,185.7582,268.5956,91.4834,2.3231e-05,1.84e-06,0.0,0 STARLINK-5994,1 56457U 23064K   24212.18501124  .00000184  00000-0  23231-4 0  9993,2 56457  70.0002 185.7582 0003218 268.5956  91.4834 14.98327474 67606,6950.201,96.107,574.302,569.829,0.0
